{
  "norad_id": 56156,
  "name": "PIESAT D",
  "history": [
    {
      "epoch": "2026-03-27T13:07:37.214400Z",
      "apogee_km": 524.1692124687834,
      "perigee_km": 522.1305723207688,
      "latitude_deg": -2.2764025420127603e-05,
      "longitude_deg": -107.01915390935899,
      "height_km": 525.8415444572868,
      "semi_major_axis_km": 6901.286892394775,
      "eccentricity": 0.0001477,
      "inclination_deg": 97.5045,
      "raan_deg": 274.8661,
      "arg_perigee_deg": 67.757,
      "mean_anomaly_deg": 292.3818,
      "mean_motion_rev_day": 15.14285066
    }
  ]
}