{"fetched_at":"2026-03-28T16:33:49Z","count":6709,"tles":[{"name":"PIESAT D","line1":"1 56156U 23047D   26086.54695850  .00002948  00000+0  16469-3 0  9994","line2":"2 56156  97.5045 274.8661 0001477  67.7570 292.3818 15.14285066165441","category":"Other"}]}